OBJECT_NAME,OBJECT_ID,EPOCH,MEAN_MOTION,ECCENTRICITY,INCLINATION,RA_OF_ASC_NODE,ARG_OF_PERICENTER,MEAN_ANOMALY,EPHEMERIS_TYPE,CLASSIFICATION_TYPE,NORAD_CAT_ID,ELEMENT_SET_NO,REV_AT_EPOCH,BSTAR,MEAN_MOTION_DOT,MEAN_MOTION_DDOT
IRIDIUM 138,2017-083B,2026-06-12T20:25:51.120768,14.34218644,.0002358,86.3976,323.5234,87.2845,272.8621,0,U,43071,999,44351,.39326E-4,.13E-5,0
IRIDIUM 116,2017-083C,2026-06-12T19:40:11.140032,14.34217864,.0001902,86.3960,323.8279,96.5315,263.6097,0,U,43072,999,44354,.17357E-4,.68E-6,0
IRIDIUM 130,2017-083D,2026-06-12T20:34:59.121408,14.34217059,.0001834,86.3965,324.0868,89.9196,270.2210,0,U,43073,999,44349,-.31166E-4,-.67E-6,0
IRIDIUM 151,2017-083E,2026-06-12T19:58:27.179328,14.34217609,.0002133,86.3962,323.8802,92.5596,267.5844,0,U,43074,999,44351,.18183E-5,.25E-6,0
IRIDIUM 134,2017-083F,2026-06-12T19:12:47.159712,14.34217751,.0002088,86.3963,323.9014,90.1602,269.9833,0,U,43075,999,44347,.1263E-5,.23E-6,0
IRIDIUM 137,2017-083G,2026-06-12T19:31:03.167040,14.34217727,.0002123,86.3965,323.9888,103.6483,256.4949,0,U,43076,999,44354,.10115E-4,.48E-6,0
IRIDIUM 141,2017-083H,2026-06-12T19:21:55.180224,14.34217724,.0002213,86.3960,323.8224,90.8983,269.2466,0,U,43077,999,44354,.2957E-5,.28E-6,0
IRIDIUM 153,2017-083J,2026-06-12T19:53:31.444224,14.34217541,.0002172,86.3955,292.2935,90.2230,269.9214,0,U,43078,999,44465,-.33315E-5,.1E-6,0
IRIDIUM 131,2017-083K,2026-06-12T20:44:07.185120,14.34217855,.0002214,86.3967,323.9842,91.8273,268.3176,0,U,43079,999,44348,.1603E-4,.65E-6,0
IRIDIUM 144,2018-030A,2026-06-12T20:02:39.367968,14.34217930,.0002074,86.3956,292.2198,95.7633,264.3799,0,U,43249,999,42951,.11713E-4,.53E-6,0
IRIDIUM 149,2018-030B,2026-06-12T20:11:47.406624,14.34217762,.0002244,86.3953,292.1842,93.1316,267.0137,0,U,43250,999,42953,-.1413E-5,.16E-6,0
IRIDIUM 157,2018-030C,2026-06-12T20:39:11.410272,14.34217754,.0002192,86.3956,292.2294,94.1126,266.0320,0,U,43251,999,42951,-.52516E-6,.18E-6,0
IRIDIUM 140,2018-030D,2026-06-12T19:26:07.404288,14.34217627,.0002122,86.3955,292.2632,93.0297,267.1142,0,U,43252,999,42956,-.44737E-5,.7E-7,0
IRIDIUM 145,2018-030E,2026-06-12T19:07:51.345120,14.34217647,.0001925,86.3956,292.2408,99.2270,260.9144,0,U,43253,999,42949,.2925E-4,.102E-5,0
IRIDIUM 146,2018-030F,2026-06-12T20:20:55.415040,14.34217429,.0001977,86.3954,292.2319,96.3597,263.7824,0,U,43254,999,42951,-.94162E-5,-.7E-7,0
IRIDIUM 148,2018-030G,2026-06-12T19:35:15.450720,14.34217402,.000211,86.3955,292.2882,97.1405,263.0031,0,U,43255,999,42954,.5211E-6,.21E-6,0
IRIDIUM 142,2018-030H,2026-06-12T20:30:03.369024,14.34217632,.0002044,86.3953,292.1613,97.5502,262.5926,0,U,43256,999,42951,.65201E-4,.202E-5,0
IRIDIUM 150,2018-030J,2026-06-12T19:44:23.419392,14.34217398,.0002015,86.3954,292.2909,93.1490,266.9936,0,U,43257,999,42953,-.10993E-4,-.11E-6,0
IRIDIUM 143,2018-030K,2026-06-12T19:16:59.331936,14.34218713,.000207,86.3959,292.3911,95.4462,264.6970,0,U,43258,999,42946,.69522E-4,.214E-5,0
IRIDIUM 161,2018-047C,2026-06-12T20:53:29.925600,14.43280761,.0002548,86.4483,90.2760,86.1294,274.0199,0,U,43478,999,42451,.81433E-4,.294E-5,0
IRIDIUM 152,2018-047D,2026-06-12T20:18:10.317600,14.34217409,.0002234,86.3957,90.1472,83.0917,277.0533,0,U,43479,999,42186,-.62264E-5,.2E-7,0
IRIDIUM 147,2018-047E,2026-06-12T20:27:18.264672,14.34217539,.000215,86.3959,90.1497,85.1920,274.9521,0,U,43480,999,42186,-.38388E-5,.9E-7,0
IRIDIUM 110,2018-047F,2026-06-12T20:36:26.248896,14.34218369,.0002591,86.3962,90.2388,84.3470,275.8021,0,U,43481,999,42185,.24016E-4,.87E-6,0
IRIDIUM 162,2018-047G,2026-06-12T20:44:26.156832,14.43279428,.0002311,86.4481,90.1697,82.7729,277.3735,0,U,43482,999,42450,.80963E-4,.293E-5,0
IRIDIUM 160,2018-061A,2026-06-12T05:54:42.522336,14.34217425,.00021773,86.3962,58.8630,85.6615,274.4829,0,U,43569,999,41266,-.5964262E-5,.3E-7,0
IRIDIUM 166,2018-061B,2026-06-12T18:14:30.478272,14.34217879,.0002121,86.3966,58.5990,85.7381,274.4057,0,U,43570,999,41276,.20269E-4,.77E-6,0
IRIDIUM 158,2018-061C,2026-06-12T19:09:18.489024,14.34217626,.0002235,86.3964,58.5932,82.5750,277.5700,0,U,43571,999,41273,.10746E-4,.5E-6,0
IRIDIUM 165,2018-061D,2026-06-12T18:05:22.301376,14.34217308,.0002079,86.3967,58.6580,85.8342,274.3091,0,U,43572,999,41275,.44883E-4,.145E-5,0
IRIDIUM 155,2018-061E,2026-06-12T18:51:02.460960,14.34217502,.0002027,86.3958,58.5136,82.3781,277.7645,0,U,43573,999,41272,-.67655E-5,.1E-7,0
IRIDIUM 154,2018-061F,2026-06-12T18:23:38.383008,14.34218891,.0002106,86.3967,58.6553,86.7370,273.4067,0,U,43574,999,41277,.73926E-4,.227E-5,0
IRIDIUM 163,2018-061G,2026-06-12T04:32:29.818464,14.34216757,.00022809,86.3963,58.8121,83.4012,276.7444,0,U,43575,999,41266,.6202202E-4,.193E-5,0
