IRIDIUM 138             
1 43071U 17083B   26163.85128612  .00000130  00000+0  39326-4 0  9995
2 43071  86.3976 323.5234 0002358  87.2845 272.8621 14.34218644443512
IRIDIUM 116             
1 43072U 17083C   26163.81957338  .00000068  00000+0  17357-4 0  9997
2 43072  86.3960 323.8279 0001902  96.5315 263.6097 14.34217864443548
IRIDIUM 130             
1 43073U 17083D   26163.85762872 -.00000067  00000+0 -31166-4 0  9994
2 43073  86.3965 324.0868 0001834  89.9196 270.2210 14.34217059443499
IRIDIUM 151             
1 43074U 17083E   26163.83225902  .00000025  00000+0  18183-5 0  9998
2 43074  86.3962 323.8802 0002133  92.5596 267.5844 14.34217609443515
IRIDIUM 134             
1 43075U 17083F   26163.80054583  .00000023  00000+0  12630-5 0  9990
2 43075  86.3963 323.9014 0002088  90.1602 269.9833 14.34217751443471
IRIDIUM 137             
1 43076U 17083G   26163.81323110  .00000048  00000+0  10115-4 0  9999
2 43076  86.3965 323.9888 0002123 103.6483 256.4949 14.34217727443540
IRIDIUM 141             
1 43077U 17083H   26163.80688866  .00000028  00000+0  29570-5 0  9995
2 43077  86.3960 323.8224 0002213  90.8983 269.2466 14.34217724443544
IRIDIUM 153             
1 43078U 17083J   26163.82883616  .00000010  00000+0 -33315-5 0  9992
2 43078  86.3955 292.2935 0002172  90.2230 269.9214 14.34217541444658
IRIDIUM 131             
1 43079U 17083K   26163.86397205  .00000065  00000+0  16030-4 0  9994
2 43079  86.3967 323.9842 0002214  91.8273 268.3176 14.34217855443480
IRIDIUM 144             
1 43249U 18030A   26163.83517787  .00000053  00000+0  11713-4 0  9992
2 43249  86.3956 292.2198 0002074  95.7633 264.3799 14.34217930429515
IRIDIUM 149             
1 43250U 18030B   26163.84152091  .00000016  00000+0 -14130-5 0  9995
2 43250  86.3953 292.1842 0002244  93.1316 267.0137 14.34217762429539
IRIDIUM 157             
1 43251U 18030C   26163.86054873  .00000018  00000+0 -52516-6 0  9990
2 43251  86.3956 292.2294 0002192  94.1126 266.0320 14.34217754429519
IRIDIUM 140             
1 43252U 18030D   26163.80980792  .00000007  00000+0 -44737-5 0  9996
2 43252  86.3955 292.2632 0002122  93.0297 267.1142 14.34217627429563
IRIDIUM 145             
1 43253U 18030E   26163.79712205  .00000102  00000+0  29250-4 0  9994
2 43253  86.3956 292.2408 0001925  99.2270 260.9144 14.34217647429492
IRIDIUM 146             
1 43254U 18030F   26163.84786360 -.00000007  00000+0 -94162-5 0  9995
2 43254  86.3954 292.2319 0001977  96.3597 263.7824 14.34217429429516
IRIDIUM 148             
1 43255U 18030G   26163.81615105  .00000021  00000+0  52110-6 0  9993
2 43255  86.3955 292.2882 0002110  97.1405 263.0031 14.34217402429547
IRIDIUM 142             
1 43256U 18030H   26163.85420566  .00000202  00000+0  65201-4 0  9997
2 43256  86.3953 292.1613 0002044  97.5502 262.5926 14.34217632429514
IRIDIUM 150             
1 43257U 18030J   26163.82249328 -.00000011  00000+0 -10993-4 0  9998
2 43257  86.3954 292.2909 0002015  93.1490 266.9936 14.34217398429531
IRIDIUM 143             
1 43258U 18030K   26163.80346449  .00000214  00000+0  69522-4 0  9994
2 43258  86.3959 292.3911 0002070  95.4462 264.6970 14.34218713429463
IRIDIUM 161             
1 43478U 18047C   26163.87048525  .00000294  00000+0  81433-4 0  9990
2 43478  86.4483  90.2760 0002548  86.1294 274.0199 14.43280761424518
IRIDIUM 152             
1 43479U 18047D   26163.84595275  .00000002  00000+0 -62264-5 0  9997
2 43479  86.3957  90.1472 0002234  83.0917 277.0533 14.34217409421862
IRIDIUM 147             
1 43480U 18047E   26163.85229473  .00000009  00000+0 -38388-5 0  9991
2 43480  86.3959  90.1497 0002150  85.1920 274.9521 14.34217539421864
IRIDIUM 110             
1 43481U 18047F   26163.85863714  .00000087  00000+0  24016-4 0  9991
2 43481  86.3962  90.2388 0002591  84.3470 275.8021 14.34218369421855
IRIDIUM 162             
1 43482U 18047G   26163.86419163  .00000293  00000+0  80963-4 0  9990
2 43482  86.4481  90.1697 0002311  82.7729 277.3735 14.43279428424501
IRIDIUM 160             
1 43569U 18061A   26163.24632549  .00000003  00000+0 -59643-5 0  9991
2 43569  86.3962  58.8630 0002177  85.6615 274.4829 14.34217425412669
IRIDIUM 166             
1 43570U 18061B   26163.76007498  .00000077  00000+0  20269-4 0  9990
2 43570  86.3966  58.5990 0002121  85.7381 274.4057 14.34217879412768
IRIDIUM 158             
1 43571U 18061C   26163.79813066  .00000050  00000+0  10746-4 0  9990
2 43571  86.3964  58.5932 0002235  82.5750 277.5700 14.34217626412730
IRIDIUM 165             
1 43572U 18061D   26163.75373034  .00000145  00000+0  44883-4 0  9997
2 43572  86.3967  58.6580 0002079  85.8342 274.3091 14.34217308412750
IRIDIUM 155             
1 43573U 18061E   26163.78544515  .00000001  00000+0 -67655-5 0  9990
2 43573  86.3958  58.5136 0002027  82.3781 277.7645 14.34217502412724
IRIDIUM 154             
1 43574U 18061F   26163.76641647  .00000227  00000+0  73926-4 0  9999
2 43574  86.3967  58.6553 0002106  86.7370 273.4067 14.34218891412777
IRIDIUM 163             
1 43575U 18061G   26163.18923401  .00000193  00000+0  62022-4 0  9994
2 43575  86.3963  58.8121 0002280  83.4012 276.7444 14.34216757412669
